[{"OBJECT_NAME":"O3B MPOWER F9","OBJECT_ID":"2025-153A","EPOCH":"2026-04-26T14:29:57.518016","MEAN_MOTION":5.00116075,"ECCENTRICITY":0.00055662,"INCLINATION":0.054,"RA_OF_ASC_NODE":15.2001,"ARG_OF_PERICENTER":45.3941,"MEAN_ANOMALY":299.4598,"EPHEMERIS_TYPE":0,"CLASSIFICATION_TYPE":"U","NORAD_CAT_ID":64866,"ELEMENT_SET_NO":999,"REV_AT_EPOCH":1697,"BSTAR":0,"MEAN_MOTION_DOT":-2.7e-7,"MEAN_MOTION_DDOT":0},{"OBJECT_NAME":"O3B MPOWER F10","OBJECT_ID":"2025-153B","EPOCH":"2026-04-26T23:16:32.382336","MEAN_MOTION":5.00114883,"ECCENTRICITY":0.00028086,"INCLINATION":0.0539,"RA_OF_ASC_NODE":10.2429,"ARG_OF_PERICENTER":262.5298,"MEAN_ANOMALY":87.1938,"EPHEMERIS_TYPE":0,"CLASSIFICATION_TYPE":"U","NORAD_CAT_ID":64867,"ELEMENT_SET_NO":999,"REV_AT_EPOCH":1947,"BSTAR":0,"MEAN_MOTION_DOT":-2.7e-7,"MEAN_MOTION_DDOT":0}]
